GLOBALSTAR M075 [+]     
1 37192U 10054E   23319.00576984 -.00000104  00000+0 -36183-5 0  9991
2 37192  51.9923 148.0652 0001112  90.0194  74.8678 12.62267526602734
GLOBALSTAR M073 [+]     
1 37193U 10054F   23319.46146558 -.00000108  00000+0 -21029-4 0  9998
2 37193  52.0065  60.0486 0000730 118.7902 319.7315 12.62269209604621
GLOBALSTAR M083 [+]     
1 37739U 11033A   23319.48061978 -.00000088  00000+0  86489-4 0  9993
2 37739  51.9884   9.5154 0000499  78.3405  28.3559 12.62262842573641
GLOBALSTAR M088 [+]     
1 37740U 11033B   23319.30493203 -.00000092  00000+0  63306-4 0  9994
2 37740  51.9738 276.0308 0000871  56.8874  90.5612 12.62267456569167
GLOBALSTAR M091 [+]     
1 37741U 11033C   23319.24283650 -.00000068  00000+0  20019-3 0  9997
2 37741  51.9996 238.7385 0001127  62.4421 101.9140 12.62268486569943
GLOBALSTAR M085 [+]     
1 37742U 11033D   23319.07156449 -.00000069  00000+0  19642-3 0  9995
2 37742  51.9854 190.8124 0001224  73.2736  92.8622 12.62265242570439
GLOBALSTAR M081 [+]     
1 37743U 11033E   23319.08713495 -.00000061  00000+0  24021-3 0  9996
2 37743  51.9945 193.1940 0001320  80.5439  36.3849 12.62266850570587
GLOBALSTAR M089 [+]     
1 37744U 11033F   23318.78708862 -.00000092  00000+0  67345-4 0  9996
2 37744  51.9905 148.4435 0001016 106.3365 266.5327 12.62269665571398
